2025-052AW              
1 63254U 25052AW  25092.56228848  .00004893  00000+0  48609-3 0  9998
2 63254  97.7345 347.3875 0000772 212.5678 147.5494 14.92160915  2858
2025-052AX              
1 63255U 25052AX  25092.56466546  .00004079  00000+0  40860-3 0  9995
2 63255  97.7363 347.3863 0000927 188.4574 171.6630 14.91919203  2855
2025-052AY              
1 63256U 25052AY  25092.62681002  .00002095  00000+0  21041-3 0  9995
2 63256  97.7364 347.4586 0001290  92.8120 267.3247 14.92336103  2860
2025-052AZ              
1 63257U 25052AZ  25092.62673269  .00007385  00000+0  72651-3 0  9992
2 63257  97.7336 347.4561 0001127  75.3817 284.7527 14.92390729  2869
2025-052BA              
1 63258U 25052BA  25092.62602513  .00006166  00000+0  60696-3 0  9999
2 63258  97.7357 347.4586 0001662  91.6890 268.4519 14.92429394  2867
2025-052BB              
1 63259U 25052BB  25092.62453482  .00008414  00000+0  82255-3 0  9992
2 63259  97.7388 347.4617 0002624 109.8781 250.2721 14.92597163  2861
2025-052BC              
1 63260U 25052BC  25092.62374950  .00003658  00000+0  36121-3 0  9992
2 63260  97.7330 347.4615 0002303  42.0825 318.0571 14.92565402  2866
2025-052BD              
1 63261U 25052BD  25092.62146276  .00011861  00000+0  11483-2 0  9999
2 63261  97.7372 347.4638 0003051  84.8228 275.3339 14.92885386  2863
2025-052BE              
1 63262U 25052BE  25092.61814038  .00012260  00000+0  11780-2 0  9991
2 63262  97.7360 347.4682 0003843  68.8269 291.3361 14.93177217  2867
2025-052BF              
1 63263U 25052BF  25092.61998425  .00007282  00000+0  70633-3 0  9996
2 63263  97.7324 347.4673 0003190  39.0081 321.1368 14.92952031  2868
2025-052BG              
1 63264U 25052BG  25092.55170431  .00007564  00000+0  73155-3 0  9994
2 63264  97.7332 347.4024 0003566  49.9135 310.2397 14.93056111  2850
STARLINK-11654 [DTC]    
1 63265U 25053A   25092.58334491 -.01073981  00000+0 -61480-2 0  9993
2 63265  43.0010  12.5239 0001707 266.8849 152.2137 15.80251087  4071
STARLINK-11659 [DTC]    
1 63266U 25053B   25092.58334491 -.01030778  00000+0 -53945-2 0  9998
2 63266  43.0009  12.4856 0001569 271.6846 162.7260 15.82466606  4071
STARLINK-11653 [DTC]    
1 63267U 25053C   25092.25334169  .00034978  00000+0  14756-3 0  9996
2 63267  43.0004  14.4909 0001762 285.7382  74.3297 15.84761027  3922
STARLINK-11641 [DTC]    
1 63268U 25053D   25092.25397620 -.00000545  00000+0  58975-7 0  9997
2 63268  43.0010  14.4953 0002178 318.8106  41.2602 15.84742524  3927
STARLINK-11638 [DTC]    
1 63269U 25053E   25092.25274557  .00038703  00000+0  16223-3 0  9993
2 63269  43.0011  14.4829 0001592 281.7225  78.3469 15.84854637  3921
STARLINK-11614 [DTC]    
1 63270U 25053F   25092.58334491 -.00013429  00000+0 -74426-4 0  9995
2 63270  43.0007  12.7279 0001596 268.5383  69.0373 15.77855134  3982
STARLINK-11620 [DTC]    
1 63271U 25053G   25092.58334491  .00034657  00000+0  20147-3 0  9990
2 63271  43.0007  12.7216 0000957 291.1366  49.1637 15.77827246  3960
STARLINK-11619 [DTC]    
1 63272U 25053H   25092.58334491 -.00162906  00000+0 -94528-3 0  9996
2 63272  43.0006  12.6518 0002149 265.8793 102.0496 15.77992409  3596
STARLINK-11621 [DTC]    
1 63273U 25053J   25092.58334491  .00021454  00000+0  12592-3 0  9998
2 63273  43.0009  12.5821 0001941 272.3935 123.3954 15.77840697  3974
STARLINK-11615 [DTC]    
1 63274U 25053K   25092.48021397  .00009458  00000+0  57101-4 0  9992
2 63274  42.9987  13.6334 0001764 259.9155 100.1516 15.77878012  3954
STARLINK-11608 [DTC]    
1 63275U 25053L   25092.47535513 -.00004305  00000+0 -21911-4 0  9990
2 63275  43.0001  13.5946 0001179 287.3425  72.7317 15.77836321  3946
STARLINK-11623 [DTC]    
1 63276U 25053M   25092.47044894 -.00012235  00000+0 -67557-4 0  9995
2 63276  43.0002  13.5546 0000626 285.5912  74.4889 15.77855471  3941
STARLINK-11612 [DTC]    
1 63277U 25053N   25092.58334491 -.00085699  00000+0 -49377-3 0  9996
2 63277  43.0002  12.7971 0001673 251.7142  58.1081 15.77890448  3933
STARLINK-33660          
1 63278U 25053P   25092.58334491 -.01341731  00000+0 -14157-1 0  9996
2 63278  43.0005  13.0548 0001234 269.9149 295.0619 15.66349348  4084
STARLINK-33611          
1 63279U 25053Q   25092.58334491 -.01340422  00000+0 -13531-1 0  9998
2 63279  43.0006  13.0654 0001389 266.6259 294.8184 15.67424383  4089
STARLINK-33646          
1 63280U 25053R   25092.58334491 -.01339939  00000+0 -13526-1 0  9995
2 63280  43.0004  13.0606 0001279 267.0110 296.3493 15.67424599  4028
STARLINK-33665          
1 63281U 25053S   25092.58334491 -.01336335  00000+0 -13485-1 0  9997
2 63281  43.0005  13.0558 0001197 273.0665 292.2046 15.67425611  4088
STARLINK-33603          
1 63282U 25053T   25092.58334491  .00188820  00000+0  14308-2 0  9995
2 63282  43.0005  13.0333 0001643 269.7802 304.4984 15.71022999  4085
STARLINK-33669          
1 63283U 25053U   25092.58334491 -.01337107  00000+0 -13495-1 0  9998
2 63283  43.0004  13.0460 0001285 268.2848 300.8266 15.67422495  4085
STARLINK-33673          
1 63284U 25053V   25092.58334491  .00178532  00000+0  14718-2 0  9991
2 63284  43.0005  13.0375 0001599 278.3356 294.1015 15.69031049  4086
STARLINK-33662          
1 63285U 25053W   25092.58334491 -.01338480  00000+0 -13510-1 0  9993
2 63285  43.0006  13.0361 0001317 266.2596 306.6852 15.67423225  4024
STARLINK-33613          
1 63286U 25053X   25092.58334491 -.01340088  00000+0 -13527-1 0  9999
2 63286  43.0006  13.0750 0001365 267.9794 289.6300 15.67425007  4082
STARLINK-33680          
1 63287U 25053Y   25092.58334491 -.01337569  00000+0 -13499-1 0  9998
2 63287  43.0005  13.0707 0001347 270.1082 289.4173 15.67424118  4022
COSMOS 2585             
1 63288U 25054A   25092.61649935  .00000042  00000+0  24213-3 0  9994
2 63288  82.5020 352.7809 0014261 308.3062  51.6733 12.40409801  2136
COSMOS 2586             
1 63289U 25054B   25092.53091631  .00000039  00000+0  21987-3 0  9991
2 63289  82.4982 352.8158 0013579 301.0360  58.9384 12.40769077  2117
COSMOS 2587             
1 63290U 25054C   25091.96241114  .00000031  00000+0  15704-3 0  9994
2 63290  82.5029 353.1751 0012803 256.5952 103.3700 12.42686725  2044
2025-055A               
1 63291U 25055A   25092.61867061  .00017933  00000+0  10977-2 0  9999
2 63291  97.6020 227.9044 0012580 236.1740 123.8292 15.10201186  2468
2025-055B               
1 63292U 25055B   25092.61912449  .00017985  00000+0  11022-2 0  9990
2 63292  97.5995 227.8984 0012499 235.3386 124.6665 15.10157678  2422
2025-055C               
1 63293U 25055C   25092.61944151  .00018111  00000+0  11105-2 0  9990
2 63293  97.6006 227.9004 0012782 234.1780 125.8262 15.10135355  2425
2025-055D               
1 63294U 25055D   25092.62017845  .00017917  00000+0  11009-2 0  9999
2 63294  97.6008 227.8994 0012812 232.9758 127.0299 15.10060167  2422
2025-055E               
1 63295U 25055E   25092.62051787  .00017972  00000+0  11054-2 0  9994
2 63295  97.5995 227.8962 0012330 233.1164 126.8935 15.10028678  2426
2025-055F               
1 63296U 25055F   25092.62060085  .00017936  00000+0  11028-2 0  9997
2 63296  97.6019 227.9014 0012374 232.3046 127.7061 15.10039919  2422
2025-055G               
1 63297U 25055G   25092.61998731  .00025398  00000+0  15522-2 0  9999
2 63297  97.6003 227.8993 0012100 233.3479 126.6639 15.10188337  2427
2025-055H               
1 63298U 25055H   25092.61848016  .00033536  00000+0  20307-2 0  9990
2 63298  97.5998 227.9010 0012540 233.3406 126.6672 15.10456621  2420
TJS-15 AKM              
1 63299U 25045C   25084.37834881  .00000022  00000+0  00000+0 0  9998
2 63299   0.0499 117.6814 0017899  27.6967 214.7282  0.98873690   165
KINEIS-4E               
1 63300U 25056A   25092.48974802  .00000420  00000+0  69733-4 0  9997
2 63300  97.9705 219.5443 0000819 167.4784 192.6446 14.75134651  2274
KINEIS-4C               
1 63301U 25056B   25092.55951807  .00006078  00000+0  91112-3 0  9996
2 63301  97.9704 219.6077 0000378  22.3965 337.7260 14.74970803  2281
KINEIS-4D               
1 63302U 25056C   25092.55834684  .00005824  00000+0  87023-3 0  9994
2 63302  97.9705 219.6094 0000312 331.3015  28.8177 14.75128917  2286
KINEIS-4A               
1 63303U 25056D   25092.48677095  .00010705  00000+0  15810-2 0  9996
2 63303  97.9703 219.5475 0001697 240.9705 119.1334 14.75430948  2262
KINEIS-4B               
1 63304U 25056E   25092.55314273  .00005880  00000+0  86860-3 0  9993
2 63304  97.9705 219.6162 0002263 209.9190 150.1890 14.75617120  2274
ELECTRON KICK STAGE R/B 
1 63306U 25056G   25092.58745823  .00005670  00000+0  65463-3 0  9990
2 63306  97.9688 219.8835 0044263 347.9090  12.1058 14.85310620  2294
STARLINK-11568 [DTC]    
1 63307U 25057A   25092.58334491  .00029469  00000+0  17180-3 0  9992
2 63307  43.0003 162.2225 0002103 269.1712  52.1803 15.77831294  3464
STARLINK-11575 [DTC]    
1 63308U 25057B   25092.58334491  .00000167  00000+0  38237-5 0  9995
2 63308  43.0008 162.1529 0001533 264.3588  84.7131 15.77862126  3418
STARLINK-11585 [DTC]    
1 63309U 25057C   25092.58334491 -.01011316  00000+0 -60019-2 0  9997
2 63309  43.0010 162.0903 0001796 276.2071  97.8339 15.79729384  3568
STARLINK-11587 [DTC]    
1 63310U 25057D   25092.58334491 -.00973261  00000+0 -51836-2 0  9991
2 63310  43.0011 162.0478 0001745 275.5318 115.5137 15.81947156  3092
STARLINK-11589 [DTC]    
1 63311U 25057E   25092.51325578 -.00129544  00000+0 -55268-3 0  9992
2 63311  43.0009 162.4518 0002218 257.1418 102.9207 15.84495709  2342
STARLINK-11650 [DTC]    
1 63312U 25057F   25092.57577721 -.00000913  00000+0 -14759-5 0  9998
2 63312  43.0003 162.0601 0001853 278.6370  81.4293 15.84786838  3540
STARLINK-11648 [DTC]    
1 63313U 25057G   25092.51217310  .00037937  00000+0  15940-3 0  9993
2 63313  43.0006 162.4438 0002712 209.4579 150.6141 15.84810007  3103
STARLINK-11640 [DTC]    
1 63314U 25057H   25092.57469118  .00031991  00000+0  13491-3 0  9998
2 63314  43.0010 162.0516 0001995 231.8571 128.2122 15.84806001  3519
